sat19336
1 19336U 88064A   20046.90027080  .00000138  00000-0  32620-3 0  9994
2 19336  82.5461 168.5441 0016472 227.5365 270.6960 13.17189325517103
